{"spkid": "50825585", "covariance": {"elements": [{"label": "e", "name": "e", "sigma": 4.59940802933808e-07, "value": ".1598808443497825", "title": "eccentricity", "units": null}, {"name": "q", "sigma": 4.20013948359998e-07, "title": "perihelion distance", "value": ".7776779694533027", "units": "au", "label": "q"}, {"title": "time of perihelion passage", "value": "2458426.901836002441", "units": "TDB", "sigma": 0.000146814652024594, "name": "tp", "label": "tp"}, {"label": "node", "sigma": 8.85772761069499e-06, "name": "om", "value": "283.0607256209395", "title": "longitude of the ascending node", "units": "deg"}, {"sigma": 9.7831763044407e-05, "name": "w", "units": "deg", "title": "argument of perihelion", "value": "145.6528798049353", "label": "peri"}, {"label": "i", "sigma": 5.25567549836851e-05, "name": "i", "title": "inclination", "value": "11.6663386894163", "units": "deg"}], "data": [["2.115455422033958E-13", "-1.931754317181779E-13", "-6.71682174362857E-11", "-2.831378699268563E-12", "-4.443287162916537E-11", "2.182684000789707E-11"], ["-1.931754317181779E-13", "1.764117168169547E-13", "6.133132566390645E-11", "2.584538178069377E-12", "4.056947696655492E-11", "-1.993403628041152E-11"], ["-6.71682174362857E-11", "6.133132566390645E-11", "2.155454204910277E-8", "8.63141124022452E-10", "1.432485308571092E-8", "-6.744781192908026E-9"], ["-2.831378699268563E-12", "2.584538178069377E-12", "8.63141124022452E-10", "7.84593384252684E-11", "5.277236366889102E-10", "-2.378311074186273E-10"], ["-4.443287162916537E-11", "4.056947696655492E-11", "1.432485308571092E-8", "5.277236366889102E-10", "9.571053860377004E-9", "-4.49164609058956E-9"], ["2.182684000789707E-11", "-1.993403628041152E-11", "-6.744781192908026E-9", "-2.378311074186273E-10", "-4.49164609058956E-9", "2.762212494415108E-9"]], "labels": ["e", "q", "tp", "node", "peri", "i"], "epoch": "2458496.5"}, "elements": [{"sigma": "4.5954E-7", "name": "e", "title": "eccentricity", "value": ".1599593782459267", "units": null, "label": "e"}, {"sigma": "8.0898E-9", "name": "a", "units": "au", "value": ".9257493455051157", "title": "semi-major axis", "label": "a"}, {"units": "au", "title": "perihelion distance", "value": ".7776670557865438", "name": "q", "sigma": "4.1967E-7", "label": "q"}, {"name": "i", "sigma": "5.2528E-5", "value": "11.66833354690718", "title": "inclination; angle with respect to x-y ecliptic plane", "units": "deg", "label": "i"}, {"title": "longitude of the ascending node", "value": "282.9976640475298", "units": "deg", "name": "om", "sigma": "8.5405E-6", "label": "node"}, {"label": "peri", "name": "w", "sigma": "9.8118E-5", "units": "deg", "value": "145.6680282071627", "title": "argument of perihelion"}, {"name": "ma", "sigma": ".00012909", "units": "deg", "title": "mean anomaly", "value": "189.4510941034497", "label": "M"}, {"label": "tp", "sigma": ".00011514", "name": "tp", "units": "TDB", "title": "time of perihelion passage", "value": "2461354.629221316315"}, {"label": "period", "value": "325.340812843031", "title": "sidereal orbital period", "units": "d", "name": "per", "sigma": "4.2646E-6"}, {"label": "n", "name": "n", "sigma": "1.4504E-8", "units": "deg/d", "value": "1.106531937552179", "title": "mean motion"}, {"label": "Q", "title": "aphelion distance", "value": "1.073831635223688", "units": "au", "name": "ad", "sigma": "9.3839E-9"}], "epoch": "2461200.5"}